OBJECT_NAME,OBJECT_ID,EPOCH,MEAN_MOTION,ECCENTRICITY,INCLINATION,RA_OF_ASC_NODE,ARG_OF_PERICENTER,MEAN_ANOMALY,EPHEMERIS_TYPE,CLASSIFICATION_TYPE,NORAD_CAT_ID,ELEMENT_SET_NO,REV_AT_EPOCH,BSTAR,MEAN_MOTION_DOT,MEAN_MOTION_DDOT
STARLINK-32196,2024-144F,2026-06-16T03:27:16.506720,15.34386981,.00011472,53.1594,118.3561,74.8534,285.2596,0,U,60430,999,10440,.28331652E-4,.581E-5,0
STARLINK-32232,2024-144G,2026-06-16T07:04:09.284160,15.32138093,.00005347,53.1609,119.2924,94.3163,265.7900,0,U,60431,999,10440,.70166359E-2,.227212E-2,0
STARLINK-32246,2024-144H,2026-06-16T08:00:01.999872,15.33518894,.00011675,53.1602,118.9728,67.9418,216.9196,0,U,60432,999,588,.18456518E-2,.60762E-3,0
STARLINK-32183,2024-144J,2026-06-16T03:39:48.598848,15.30196633,.00013449,53.1603,119.8271,83.0192,277.0962,0,U,60433,999,10438,.36569202E-4,.724E-5,0
STARLINK-32233,2024-144K,2026-06-16T03:33:20.065824,15.34391030,.00012589,53.1603,118.3837,87.5177,272.5969,0,U,60434,999,10440,.28677519E-4,.593E-5,0
STARLINK-32222,2024-144L,2026-06-16T01:41:21.468768,15.34392569,.00012826,53.1603,118.6131,96.0976,264.0173,0,U,60435,999,10439,-.19640541E-4,-.104E-4,0
STARLINK-32229,2024-144M,2026-06-16T03:06:04.264992,15.34384845,.00013036,53.1605,118.2678,81.7586,278.3564,0,U,60436,999,10440,.13674618E-4,.86E-6,0
STARLINK-32241,2024-144N,2026-06-16T03:42:25.768224,15.34389409,.0001461,53.1617,118.4257,103.0899,257.0267,0,U,60437,999,10440,.9984585E-5,-.39E-6,0
STARLINK-32240,2024-144P,2026-06-16T03:03:02.368800,15.34385130,.00013228,53.1601,118.2542,78.4605,281.6546,0,U,60438,999,10444,.18188201E-4,.238E-5,0
STARLINK-32231,2024-144Q,2026-06-16T03:30:18.580032,15.34402290,.00010641,53.1590,118.3665,80.3216,279.7907,0,U,60439,999,10350,-.9132055E-5,-.685E-5,0
STARLINK-32195,2024-144R,2026-06-16T04:30:46.864224,15.34380733,.00013236,53.1596,117.9196,95.3058,264.8096,0,U,60440,999,10441,.6631969E-5,-.152E-5,0
STARLINK-32177,2024-144S,2026-06-16T04:18:39.699360,15.34381973,.00014571,53.1610,117.8662,102.5218,257.5948,0,U,60441,999,10441,.27122935E-4,.54E-5,0
STARLINK-32252,2024-144T,2026-06-16T03:00:00.547776,15.34385711,.0001418,53.1609,118.2398,76.5379,283.5782,0,U,60442,999,10444,.28919783E-4,.6E-5,0
STARLINK-32237,2024-144U,2026-06-16T03:39:23.612832,15.34392922,.0001427,53.1608,118.4093,98.4889,261.6275,0,U,60443,999,10440,.36784204E-4,.866E-5,0
STARLINK-32249,2024-144V,2026-06-16T03:18:11.085984,15.34389525,.0001227,53.1611,118.3158,92.8375,267.2768,0,U,60444,999,10444,.28218019E-4,.577E-5,0
STARLINK-32228,2024-144W,2026-06-16T04:06:32.437728,15.34385950,.00012808,53.1595,117.8148,93.4690,266.6459,0,U,60445,999,10445,.3920464E-4,.948E-5,0
STARLINK-32247,2024-144X,2026-06-16T01:14:11.167296,15.30192998,.00009048,53.1608,109.8225,79.3795,280.7308,0,U,60446,999,10455,.28904531E-4,.497E-5,0
STARLINK-32101,2024-144Y,2026-06-16T04:12:36.295776,15.34384582,.00014174,53.1610,117.8419,88.6311,271.4854,0,U,60447,999,10441,.26005129E-4,.502E-5,0
LEGION 3,2024-146A,2026-06-16T03:25:16.117824,15.16031003,.00075057,45.0021,36.1579,164.2290,195.8824,0,U,60452,999,10186,.15871508E-3,.284E-4,0
LEGION 4,2024-146B,2026-06-16T05:04:35.761728,15.16023330,.00138355,45.0002,127.6976,303.3517,56.6037,0,U,60453,999,10072,.18427797E-3,.3344E-4,0
EOS-08,2024-147A,2026-06-16T03:08:57.915168,15.48856617,.00052881,37.3815,64.1643,275.5526,84.4636,0,U,60454,999,10291,.56266377E-3,.31175E-3,0
YAOGAN-43 01A,2024-148A,2026-06-16T06:13:04.189728,15.35666759,.00060083,35.0033,144.6074,220.0767,139.9509,0,U,60458,999,10230,.29742015E-3,.10574E-3,0
YAOGAN-43 01B,2024-148B,2026-06-16T05:34:46.343712,15.35816277,.00088136,34.9917,140.1880,211.7552,148.2635,0,U,60459,999,10228,.26329767E-3,.9407E-4,0
YAOGAN-43 01C,2024-148C,2026-06-16T07:12:58.670784,15.23154180,.00063088,34.9971,168.0846,204.5709,155.4706,0,U,60460,999,10200,.27232145E-3,.6562E-4,0
YAOGAN-43 01D,2024-148D,2026-06-16T06:43:55.421184,15.29838957,.00026903,35.0026,154.2388,203.7159,156.3434,0,U,60461,999,10214,.20434929E-3,.6023E-4,0
YAOGAN-43 01E,2024-148E,2026-06-16T07:07:51.834144,15.23088291,.00062838,34.9906,165.7825,221.0980,138.9261,0,U,60462,999,10202,.33702089E-3,.8116E-4,0
YAOGAN-43 01F,2024-148F,2026-06-16T06:29:09.588768,15.32441092,.00086123,34.9907,154.0959,217.4923,142.5194,0,U,60463,999,10214,.2512593E-3,.8056E-4,0
YAOGAN-43 01G,2024-148G,2026-06-16T06:58:24.315744,15.29802682,.00054886,35.0002,154.5316,145.1841,214.9235,0,U,60464,999,10214,.1967043E-3,.5791E-4,0
YAOGAN-43 01H,2024-148H,2026-06-16T06:50:48.428736,15.27716145,.00077599,34.9888,162.8821,192.7356,167.3165,0,U,60465,999,10205,.21342715E-3,.5898E-4,0
YAOGAN-43 01J,2024-148J,2026-06-16T06:20:20.437152,15.36331892,.00091327,34.9904,139.6234,253.1039,106.8679,0,U,60466,999,10229,.29970235E-3,.10897E-3,0
TRANSPORTER-11 OBJECT A,2024-149A,2026-06-16T04:11:01.836384,15.32892502,.00027035,97.3735,247.1069,197.3235,162.7915,0,U,60468,999,10190,.22919005E-3,.7203E-4,0
WARATAH SEED-1,2024-149B,2026-06-16T04:46:33.960288,15.35925410,.00014449,97.3694,247.7723,181.0659,179.0582,0,U,60469,999,10196,.30622828E-3,.10631E-3,0
PHISAT 2,2024-149C,2026-06-16T04:44:37.747104,15.31056953,.00009204,97.3760,246.4188,173.6199,186.5054,0,U,60470,999,10184,.27193191E-3,.8083E-4,0
LEMUR-2-TOMATOKECHUP,2024-149D,2026-06-16T04:41:13.746336,15.36017182,.00013254,97.3806,249.2392,177.5329,182.5921,0,U,60471,999,10201,.26406406E-3,.9181E-4,0
CONNECTA IOT-1,2024-149E,2026-06-16T04:13:55.524576,15.23534126,.00003431,97.3761,243.4846,306.6392,53.4814,0,U,60472,999,10164,.14791002E-3,.3463E-4,0
LOPEN,2024-149F,2026-06-16T05:17:30.093216,15.39664988,.00007404,97.3783,250.5804,184.6906,175.4333,0,U,60473,999,10211,.32315E-3,.12674E-3,0
ROCK,2024-149G,2026-06-16T04:58:09.676416,15.39660023,.0001021,97.3780,250.5827,194.2356,165.8861,0,U,60474,999,10211,.31320713E-3,.12279E-3,0
CONNECTA IOT-3,2024-149H,2026-06-16T04:44:43.073664,15.23546358,.00013552,97.3736,243.2590,259.7881,100.3203,0,U,60475,999,10165,.14255055E-3,.3336E-4,0
QUBE,2024-149J,2026-06-16T04:52:46.228512,15.47152637,.00018635,97.3784,253.6177,197.3639,162.7548,0,U,60476,999,10231,.41310264E-3,.20901E-3,0
WREN-1,2024-149L,2026-06-16T05:24:47.925216,15.41524827,.00031896,97.3768,251.3276,253.0159,107.0739,0,U,60478,999,10217,.41364523E-3,.17289E-3,0
TOMORROW-S1,2024-149M,2026-06-16T05:20:13.308864,15.32710551,.00014443,97.3752,247.6973,217.1022,143.0121,0,U,60479,999,10194,.20839846E-3,.6504E-4,0
FLOCK 4BE-18,2024-149N,2026-06-16T04:08:04.440768,15.41830749,.00027967,97.3732,250.8909,239.6217,120.4754,0,U,60480,999,10215,.34799834E-3,.14675E-3,0
FLOCK 4BE-7,2024-149P,2026-06-16T04:17:24.476064,15.40281702,.00019998,97.3764,250.2386,240.0416,120.0631,0,U,60481,999,10209,.4809477E-3,.19308E-3,0
TOMORROW-S2,2024-149T,2026-06-16T04:30:10.815552,15.32738900,.00012665,97.3822,248.1507,268.8559,91.2538,0,U,60485,999,10193,.21495831E-3,.6718E-4,0
FLOCK 4BE-36,2024-149U,2026-06-16T05:01:13.421568,15.42697574,.00023538,97.3749,251.6254,257.5031,102.5953,0,U,60486,999,10220,.29672105E-3,.12864E-3,0
FLOCK 4BE-25,2024-149V,2026-06-16T04:15:29.926944,15.38814793,.00012269,97.3804,250.3206,222.9910,137.1240,0,U,60487,999,10208,.30099818E-3,.11474E-3,0
FLOCK 4BE-31,2024-149W,2026-06-16T04:13:43.196160,15.44057891,.00012666,97.3803,252.4474,256.9567,103.1540,0,U,60488,999,10222,.37328804E-3,.16973E-3,0
FLOCK 4BE-20,2024-149X,2026-06-16T04:55:49.662624,15.38033993,.00024879,97.3702,249.2304,253.9819,106.1153,0,U,60489,999,10206,.28935734E-3,.10749E-3,0
FLOCK 4BE-23,2024-149Y,2026-06-16T04:41:25.175328,15.37651236,.0001989,97.3787,249.5964,263.8916,96.2102,0,U,60490,999,10204,.30013844E-3,.11015E-3,0
FLOCK 4BE-15,2024-149Z,2026-06-16T04:31:42.745152,15.59566831,.00030271,97.3689,252.5311,240.8572,119.2381,0,U,60491,999,10227,.95872229E-3,.76671E-3,0
FLOCK 4BE-17,2024-149AA,2026-06-16T04:20:35.131488,15.39759167,.00019951,97.3779,250.5419,240.1440,119.9607,0,U,60492,999,10210,.32669072E-3,.12854E-3,0
NUSAT-50 (NANCY ROMAN),2024-149AB,2026-06-16T04:29:42.873792,15.29841839,.0003367,97.3793,248.4498,176.8151,183.3112,0,U,60493,999,10197,.27308417E-3,.7818E-4,0
FLOCK 4BE-22,2024-149AC,2026-06-16T05:28:48.817920,15.41142714,.0002331,97.3738,250.7799,258.8951,101.2034,0,U,60494,999,10215,.33361717E-3,.13745E-3,0
FLOCK 4BE-34,2024-149AD,2026-06-16T04:20:00.610368,15.41132832,.00021409,97.3788,251.5531,273.0045,87.0956,0,U,60495,999,10217,.3119545E-3,.12841E-3,0
TYCHE,2024-149AE,2026-06-16T05:13:18.311520,15.25981733,.00006131,97.3757,245.0467,254.0526,106.0645,0,U,60496,999,10175,.1503995E-3,.3792E-4,0
FLOCK 4BE-32,2024-149AF,2026-06-16T05:09:09.730080,15.42127248,.00023835,97.3727,251.1310,263.6017,96.4959,0,U,60497,999,10218,.3166241E-3,.13474E-3,0
NUSAT-48 (HENRIETTA LEAVITT),2024-149AG,2026-06-16T04:13:20.069472,15.29846174,.00024082,97.3926,248.6800,282.6949,77.4022,0,U,60498,999,10198,.26916138E-3,.7705E-4,0
FLOCK 4BE-30,2024-149AH,2026-06-16T05:28:41.608704,15.56301448,.00040987,97.3782,252.7151,234.5456,125.5417,0,U,60499,999,10162,.15075294E-2,.107195E-2,0
NUSAT-49 (KLARA DAN VON NEUMANN),2024-149AJ,2026-06-16T05:16:01.112448,15.29932512,.00009993,97.3784,248.5136,346.4421,13.6792,0,U,60500,999,10198,.25047813E-3,.7183E-4,0
FLOCK 4BE-11,2024-149AK,2026-06-16T05:02:07.107072,15.42952660,.0002508,97.3705,251.3553,263.0632,97.0330,0,U,60501,999,10220,.31062991E-3,.13589E-3,0
YAM-7,2024-149AN,2026-06-16T04:59:38.444640,15.31808150,.0002007,97.3787,247.4613,313.0311,47.0762,0,U,60504,999,10190,.20106407E-3,.6097E-4,0
FLOCK 4BE-24,2024-149AP,2026-06-16T04:42:52.682976,15.43040650,.00027059,97.3723,251.5970,279.2650,80.8292,0,U,60505,999,10221,.37633779E-3,.16536E-3,0
LUR-1,2024-149AQ,2026-06-16T04:44:08.031552,15.30095163,.00028837,97.3742,246.0324,324.8243,35.2807,0,U,60506,999,10182,.19523415E-3,.561E-4,0
TANAGER-1,2024-149AR,2026-06-15T17:37:44.858208,15.44920515,.00040107,97.2612,260.9852,316.0052,44.0877,0,U,60507,999,10281,.87702047E-4,.4035E-4,0
